O3B MPOWER F1           
1 54755U 22174A   23261.05301111 -.00000016  00000+0  00000+0 0  9994
2 54755   0.0465  16.5724 0004811 174.9352  98.3108  5.00118482 15164
